satname,norad_id,inclination_deg,eccentricity,mean_motion_rev_per_day,perigee_km,apogee_km,l1,l2
STARLINK-1283,45389,53.0498,0.0003454,15.41137599,440.39473403361444,445.1066032351082,1 45389U 20019AF  25360.91668980  .00058077  00000+0  13798-2 0  9990,2 45389  53.0498  98.4864 0003454 354.5109 329.6626 15.41137599  5804
STARLINK-1284,45390,53.056,0.0001338,15.06391482,546.311049374367,548.1642796345886,1 45390U 20019AG  25360.70492233  .00000555  00000+0  56148-4 0  9991,2 45390  53.0560 114.2628 0001338  89.6273 270.4869 15.06391482319004
STARLINK-1297,45395,53.0555,0.0001476,15.06395776,546.2023205621817,548.2466872781397,1 45395U 20019AM  25360.47639596  .00001547  00000+0  12278-3 0  9992,2 45395  53.0555 115.2863 0001476  90.0921 270.0237 15.06395776318154
STARLINK-1307,45397,53.0537,0.000129,15.06398449,546.322940956783,548.1096821111587,1 45397U 20019AP  25360.60170713  .00002080  00000+0  15848-3 0  9999,2 45397  53.0537 114.7229 0001290  92.2273 267.8864 15.06398449318817
STARLINK-1255,45399,53.0471,0.000158,15.39808803,445.5958940989267,447.7525344426376,1 45399U 20019AR  25360.54562441  .00017760  00000+0  45013-3 0  9995,2 45399  53.0471  91.3374 0001580  62.1248 297.9916 15.39808803319120
STARLINK-1260,45404,53.0564,0.0001355,15.0640727,546.2508948144905,548.1276582354294,1 45404U 20019AW  25360.66897057  .00001854  00000+0  14332-3 0  9996,2 45404  53.0564 104.4177 0001355  81.5548 278.5594 15.06407270318858
STARLINK-1263,45405,53.0539,0.0001183,15.06395614,546.4057301045423,548.0442707538432,1 45405U 20019AX  25360.58789715 -.00005025  00000+0 -31876-3 0  9997,2 45405  53.0539 104.7846 0001183  94.7420 265.3704 15.06395614318845
STARLINK-1265,45406,53.0545,0.0001076,15.06391969,546.4910017526572,547.9813420592518,1 45406U 20019AY  25360.72795441  .00001477  00000+0  11804-3 0  9991,2 45406  53.0545 104.1578 0001076  89.6391 270.4722 15.06391969318868
STARLINK-1278,45408,53.0506,0.0005086,15.41817398,437.2775168015114,444.2136841827323,1 45408U 20019BA  25360.59118294  .00089085  00000+0  20554-2 0  9995,2 45408  53.0506 120.3764 0005086 193.5574 166.5295 15.41817398318630
STARLINK-1296,45412,53.056,9.8e-05,15.06393429,546.553011047763,547.91038331241,1 45412U 20019BE  25360.66529330  .00001428  00000+0  11475-3 0  9993,2 45412  53.0560 104.4358 0000980  84.8351 275.2750 15.06393429318853
STARLINK-1298,45413,53.0426,0.0003975,15.64898911,370.8457181353515,376.2132930072821,1 45413U 20019BF  25360.91668980  .00165587  00000+0  16334-2 0  9992,2 45413  53.0426  58.6843 0003975  74.1559  46.8130 15.64898911  5940
STARLINK-1309,45414,53.0567,0.0001338,15.06388766,546.3193725003648,548.1726049881518,1 45414U 20019BG  25360.48099736  .00001187  00000+0  98572-4 0  9993,2 45414  53.0567 105.2677 0001338 100.1033 260.0107 15.06388766318814
STARLINK-1316,45415,53.0555,0.0001141,15.06395717,546.4345009792842,548.0148685157428,1 45415U 20019BH  25360.57314348  .00000627  00000+0  61003-4 0  9990,2 45415  53.0555 104.8516 0001141  91.1090 269.0030 15.06395717318866
STARLINK-1318,45416,53.0455,0.0003019,15.71904733,351.42130609008746,355.48584047823533,1 45416U 20019BJ  25360.91668980  .00117805  00000+0  87882-3 0  9992,2 45416  53.0455  47.2995 0003019  21.5076 180.7050 15.71904733  5954
STARLINK-1286,45417,53.0498,0.0002219,15.43280262,434.9237199843401,437.9480274256912,1 45417U 20019BK  25360.75425221  .00067531  00000+0  14905-2 0  9999,2 45417  53.0498 119.3670 0002219 216.8383 143.2470 15.43280262318932
STARLINK-1308,45419,53.0554,0.0001265,15.06391808,546.3606055835271,548.1127251208609,1 45419U 20019BM  25360.60724021  .00000784  00000+0  71545-4 0  9997,2 45419  53.0554 134.6964 0001265  93.3006 266.8128 15.06391808318450
STARLINK-1329,45531,53.0554,0.0001268,15.42269595,438.5481953228955,440.2771259168285,1 45531U 20025A   25360.59711612  .00078215  00000+0  17818-2 0  9994,2 45531  53.0554  71.4605 0001268  57.6805 302.4322 15.42269595314128
STARLINK-1338,45532,53.0556,0.00015,15.28175076,480.2388919446412,482.29671338544176,1 45532U 20025B   25360.91668980  .01912359  00000+0  62300-1 0  9992,2 45532  53.0556  72.3010 0001500 105.4573  42.8198 15.28175076  5839
STARLINK-1350,45535,53.0742,0.0001741,15.3398388,462.7491104568162,465.1315217782885,1 45535U 20025E   25360.74138830  .00011887  00000+0  36712-3 0  9997,2 45535  53.0742  15.1990 0001741  85.6061 274.5139 15.33983880314950
STARLINK-1362,45538,53.055,0.0001185,15.06409711,546.3611450045637,548.0024455590446,1 45538U 20025H   25360.61915345  .00006907  00000+0  48202-3 0  9994,2 45538  53.0550  74.3643 0001185  99.0045 261.1078 15.06409711314089
STARLINK-1368,45540,53.0553,0.0001346,15.06368384,546.3762931608453,548.2406230781708,1 45540U 20025K   25360.55750582 -.00002877  00000+0 -17445-3 0  9999,2 45540  53.0553  74.9226 0001346  93.2594 266.8549 15.06368384314065
STARLINK-1371,45542,53.0545,4.61e-05,15.12818135,527.2921204353979,527.9288303526291,1 45542U 20025M   25360.91668980  .01612018  00000+0  83300-1 0  9995,2 45542  53.0545  73.2099 0000461  71.0658 288.3490 15.12818135  5837
STARLINK-1372,45543,53.0537,0.0001205,15.06374813,546.4542397379746,548.1232673445784,1 45543U 20025N   25360.49851348  .00000527  00000+0  54282-4 0  9996,2 45543  53.0537  75.1868 0001205  96.3061 263.8066 15.06374813313156
STARLINK-1373,45544,53.0564,0.0001685,15.06385493,546.0890914368074,548.4229488846022,1 45544U 20025P   25359.52174053 -.00003024  00000+0 -18427-3 0  9997,2 45544  53.0564  79.5730 0001685  92.9367 267.1814 15.06385493313914
STARLINK-1294,45551,53.045,0.0002257,15.70987269,354.5542606255949,357.59408354867537,1 45551U 20025W   25360.91668980  .00151944  00000+0  11720-2 0  9998,2 45551  53.0450 342.7375 0002257 108.7468 111.4939 15.70987269  5850
STARLINK-1325,45554,53.0485,0.0010235,15.8312967,314.73913814826665,328.45349224447364,1 45554U 20025Z   25360.91668980  .00269830  00000+0  11923-2 0  9990,2 45554  53.0485 332.7914 0010235  73.8394 319.4179 15.83129670  6039
STARLINK-1327,45555,53.0536,0.000124,15.16965185,514.1641169179911,515.8736195733163,1 45555U 20025AA  25360.91668980  .01598321  00000+0  73568-1 0  9994,2 45555  53.0536  53.0862 0001240  99.4657 175.5085 15.16965185  5787
STARLINK-1356,45564,53.0555,0.0001469,15.06405591,546.1770911955809,548.2117535674761,1 45564U 20025AK  25360.55932339  .00007169  00000+0  49958-3 0  9998,2 45564  53.0555  54.9122 0001469  80.2695 279.8460 15.06405591314349
STARLINK-1357,45565,53.0581,4.2e-05,15.41337019,441.87587371875907,442.4487788621682,1 45565U 20025AL  25360.00002315  .00136122  00000+0  31676-2 0  9990,2 45565  53.0581  30.6056 0000420 223.6764 167.5892 15.41337019  5888
STARLINK-1361,45567,53.053,0.0001564,15.06393671,546.1478279314124,548.3140830278871,1 45567U 20025AN  25360.84314627 -.00000723  00000+0 -29620-4 0  9993,2 45567  53.0530  53.6390 0001564  87.9492 272.1676 15.06393671314398
STARLINK-1363,45568,53.0506,0.0007316,15.52421005,404.69387402371467,414.6257783397841,1 45568U 20025AP  25360.83164096  .00120526  00000+0  19158-2 0  9991,2 45568  53.0506  35.2937 0007316 331.2719  28.7886 15.52421005314643
STARLINK-1366,45569,53.0493,0.0007637,15.49355187,413.42052617307854,423.80187937799747,1 45569U 20025AQ  25360.91668980  .00155463  00000+0  27410-2 0  9990,2 45569  53.0493  35.2898 0007637 343.4302 228.1411 15.49355187  5745
STARLINK-1376,45570,53.0554,0.0001263,15.06395952,546.3492914132257,548.0986375928587,1 45570U 20025AR  25360.44137608 -.00000060  00000+0  14870-4 0  9999,2 45570  53.0554  55.4446 0001263  85.3921 274.7212 15.06395952314326
STARLINK-1320,45572,53.0552,0.0004685,15.52121177,407.35345203353427,413.71443670840927,1 45572U 20025AT  25360.91668980  .00105868  00000+0  17061-2 0  9999,2 45572  53.0552 340.5183 0004685  99.6341 187.8039 15.52121177  5849
STARLINK-1321,45573,53.0553,8.88e-05,15.18276216,510.43837861432894,511.661898250115,1 45573U 20025AU  25360.91668980  .01574155  00000+0  68855-1 0  9996,2 45573  53.0553  42.9795 0000888  97.3055 208.6080 15.18276216  5789
STARLINK-1328,45576,53.0431,8.79e-05,15.95779718,285.55687706489334,286.7284574303958,1 45576U 20025AX  25360.91668980  .00442904  90538-4  10746-2 0  9991,2 45576  53.0431 349.5939 0000879  86.7683 208.3353 15.95779718  5995
STARLINK-1331,45578,53.0562,0.0001296,15.06396265,546.3254785423178,548.120531855664,1 45578U 20025AZ  25360.40544454 -.00000849  00000+0 -38120-4 0  9994,2 45578  53.0562  45.6054 0001296  84.1025 276.0112 15.06396265314475
STARLINK-1333,45580,53.056,0.0001343,15.06390123,546.3117513093039,548.1719080629573,1 45580U 20025BB  25360.54457897  .00002427  00000+0  18181-3 0  9992,2 45580  53.0560  54.9780 0001343 106.0312 254.0825 15.06390123314341
STARLINK-1335,45581,53.0556,0.0001236,15.06388371,546.3912218906371,548.1031768647226,1 45581U 20025BC  25360.81458090 -.00000247  00000+0  23222-5 0  9992,2 45581  53.0556  43.7677 0001236  97.1027 263.0103 15.06388371314523
STARLINK-1337,45582,53.0563,0.0001373,15.06392504,546.2836786825537,548.1853857052938,1 45582U 20025BD  25360.83669880 -.00000086  00000+0  13099-4 0  9997,2 45582  53.0563  43.6708 0001373  89.7967 270.3179 15.06392504314525
STARLINK-1347,45586,53.0515,4.24e-05,15.40198589,445.23338241229067,445.8120287553256,1 45586U 20025BH  25360.91668980  .00145715  00000+0  35158-2 0  9996,2 45586  53.0515  17.1187 0000424  37.5028 205.2944 15.40198589  5910
STARLINK-1360,45588,53.0369,0.0004777,15.99445413,272.7777437903387,279.135064628721,1 45588U 20025BK  25360.91668980  .00654386  20175-3  12922-2 0  9990,2 45588  53.0369 275.6455 0004777 132.4517 306.4338 15.99445413  6019
STARLINK-1364,45589,53.0547,0.0001243,15.06387393,546.3893712184417,548.1110224755776,1 45589U 20025BL  25360.50864516  .00001391  00000+0  11228-3 0  9991,2 45589  53.0547  45.1440 0001243  98.2666 261.8464 15.06387393314477
